[{"OBJECT_NAME":"ONEWEB-0371","OBJECT_ID":"2021-090U","EPOCH":"2026-05-03T21:54:31.464288","MEAN_MOTION":13.19725361,"ECCENTRICITY":0.0001717,"INCLINATION":87.9148,"RA_OF_ASC_NODE":313.7949,"ARG_OF_PERICENTER":86.0254,"MEAN_ANOMALY":274.1075,"EPHEMERIS_TYPE":0,"CLASSIFICATION_TYPE":"U","NORAD_CAT_ID":49297,"ELEMENT_SET_NO":999,"REV_AT_EPOCH":22061,"BSTAR":1.3987e-05,"MEAN_MOTION_DOT":1.9e-07,"MEAN_MOTION_DDOT":0.0},{"OBJECT_NAME":"ONEWEB-0372","OBJECT_ID":"2021-090V","EPOCH":"2026-05-04T03:31:10.020864","MEAN_MOTION":13.20773953,"ECCENTRICITY":0.0001798,"INCLINATION":87.9149,"RA_OF_ASC_NODE":283.2275,"ARG_OF_PERICENTER":95.4029,"MEAN_ANOMALY":264.7309,"EPHEMERIS_TYPE":0,"CLASSIFICATION_TYPE":"U","NORAD_CAT_ID":49298,"ELEMENT_SET_NO":999,"REV_AT_EPOCH":22402,"BSTAR":0.00019004,"MEAN_MOTION_DOT":9e-07,"MEAN_MOTION_DDOT":0.0},{"OBJECT_NAME":"ONEWEB-0373","OBJECT_ID":"2021-090W","EPOCH":"2026-05-04T04:10:00.813792","MEAN_MOTION":13.20770418,"ECCENTRICITY":0.0001793,"INCLINATION":87.9147,"RA_OF_ASC_NODE":283.2244,"ARG_OF_PERICENTER":99.255,"MEAN_ANOMALY":260.8786,"EPHEMERIS_TYPE":0,"CLASSIFICATION_TYPE":"U","NORAD_CAT_ID":49299,"ELEMENT_SET_NO":999,"REV_AT_EPOCH":22521,"BSTAR":-7.299400000000001e-06,"MEAN_MOTION_DOT":1e-07,"MEAN_MOTION_DDOT":0.0},{"OBJECT_NAME":"ONEWEB-0374","OBJECT_ID":"2021-090X","EPOCH":"2026-05-03T21:27:46.167840","MEAN_MOTION":13.14504516,"ECCENTRICITY":0.000221,"INCLINATION":87.8925,"RA_OF_ASC_NODE":298.535,"ARG_OF_PERICENTER":105.6902,"MEAN_ANOMALY":254.4472,"EPHEMERIS_TYPE":0,"CLASSIFICATION_TYPE":"U","NORAD_CAT_ID":49300,"ELEMENT_SET_NO":999,"REV_AT_EPOCH":22174,"BSTAR":-0.0005708600000000001,"MEAN_MOTION_DOT":-1.99e-06,"MEAN_MOTION_DDOT":0.0},{"OBJECT_NAME":"ONEWEB-0375","OBJECT_ID":"2021-090Y","EPOCH":"2026-05-04T03:51:49.209408","MEAN_MOTION":13.20770622,"ECCENTRICITY":0.0002121,"INCLINATION":87.9146,"RA_OF_ASC_NODE":283.2171,"ARG_OF_PERICENTER":109.9364,"MEAN_ANOMALY":250.1998,"EPHEMERIS_TYPE":0,"CLASSIFICATION_TYPE":"U","NORAD_CAT_ID":49301,"ELEMENT_SET_NO":999,"REV_AT_EPOCH":22471,"BSTAR":0.00019629,"MEAN_MOTION_DOT":9.3e-07,"MEAN_MOTION_DDOT":0.0},{"OBJECT_NAME":"ONEWEB-0376","OBJECT_ID":"2021-090Z","EPOCH":"2026-05-03T21:52:14.724192","MEAN_MOTION":13.19726315,"ECCENTRICITY":0.0001838,"INCLINATION":87.9154,"RA_OF_ASC_NODE":313.7928,"ARG_OF_PERICENTER":82.789,"MEAN_ANOMALY":277.3452,"EPHEMERIS_TYPE":0,"CLASSIFICATION_TYPE":"U","NORAD_CAT_ID":49302,"ELEMENT_SET_NO":999,"REV_AT_EPOCH":22061,"BSTAR":-5.2781e-05,"MEAN_MOTION_DOT":-8e-08,"MEAN_MOTION_DDOT":0.0},{"OBJECT_NAME":"ONEWEB-0377","OBJECT_ID":"2021-090AA","EPOCH":"2026-05-04T03:31:34.661280","MEAN_MOTION":13.20772072,"ECCENTRICITY":0.0001643,"INCLINATION":87.9149,"RA_OF_ASC_NODE":283.2216,"ARG_OF_PERICENTER":101.9929,"MEAN_ANOMALY":258.1388,"EPHEMERIS_TYPE":0,"CLASSIFICATION_TYPE":"U","NORAD_CAT_ID":49303,"ELEMENT_SET_NO":999,"REV_AT_EPOCH":22470,"BSTAR":0.00016673,"MEAN_MOTION_DOT":8.1e-07,"MEAN_MOTION_DDOT":0.0},{"OBJECT_NAME":"ONEWEB-0378","OBJECT_ID":"2021-090AB","EPOCH":"2026-05-04T04:03:22.972032","MEAN_MOTION":13.20769996,"ECCENTRICITY":0.0001933,"INCLINATION":87.9144,"RA_OF_ASC_NODE":283.225,"ARG_OF_PERICENTER":98.8729,"MEAN_ANOMALY":261.2624,"EPHEMERIS_TYPE":0,"CLASSIFICATION_TYPE":"U","NORAD_CAT_ID":49304,"ELEMENT_SET_NO":999,"REV_AT_EPOCH":22397,"BSTAR":7.9538e-05,"MEAN_MOTION_DOT":4.5e-07,"MEAN_MOTION_DDOT":0.0},{"OBJECT_NAME":"ONEWEB-0379","OBJECT_ID":"2021-090AC","EPOCH":"2026-05-04T04:39:22.239360","MEAN_MOTION":13.14503582,"ECCENTRICITY":0.0001875,"INCLINATION":87.8927,"RA_OF_ASC_NODE":298.4862,"ARG_OF_PERICENTER":94.8461,"MEAN_ANOMALY":265.2883,"EPHEMERIS_TYPE":0,"CLASSIFICATION_TYPE":"U","NORAD_CAT_ID":49305,"ELEMENT_SET_NO":999,"REV_AT_EPOCH":22178,"BSTAR":-0.00037058999999999996,"MEAN_MOTION_DOT":-1.25e-06,"MEAN_MOTION_DDOT":0.0},{"OBJECT_NAME":"ONEWEB-0380","OBJECT_ID":"2021-090AD","EPOCH":"2026-05-03T21:47:41.669088","MEAN_MOTION":13.19724803,"ECCENTRICITY":0.0001725,"INCLINATION":87.9148,"RA_OF_ASC_NODE":313.8027,"ARG_OF_PERICENTER":97.1268,"MEAN_ANOMALY":263.0061,"EPHEMERIS_TYPE":0,"CLASSIFICATION_TYPE":"U","NORAD_CAT_ID":49306,"ELEMENT_SET_NO":999,"REV_AT_EPOCH":22058,"BSTAR":-0.00015164,"MEAN_MOTION_DOT":-4.8e-07,"MEAN_MOTION_DDOT":0.0},{"OBJECT_NAME":"ONEWEB-0381","OBJECT_ID":"2021-090AE","EPOCH":"2026-05-04T03:26:47.979168","MEAN_MOTION":13.2077002,"ECCENTRICITY":0.0001971,"INCLINATION":87.9149,"RA_OF_ASC_NODE":283.2267,"ARG_OF_PERICENTER":102.446,"MEAN_ANOMALY":257.6894,"EPHEMERIS_TYPE":0,"CLASSIFICATION_TYPE":"U","NORAD_CAT_ID":49307,"ELEMENT_SET_NO":999,"REV_AT_EPOCH":22401,"BSTAR":-1.969e-05,"MEAN_MOTION_DOT":5e-08,"MEAN_MOTION_DDOT":0.0},{"OBJECT_NAME":"ONEWEB-0382","OBJECT_ID":"2021-090AF","EPOCH":"2026-05-04T03:08:37.186080","MEAN_MOTION":13.2076989,"ECCENTRICITY":0.0002104,"INCLINATION":87.9149,"RA_OF_ASC_NODE":283.2247,"ARG_OF_PERICENTER":101.2575,"MEAN_ANOMALY":258.8795,"EPHEMERIS_TYPE":0,"CLASSIFICATION_TYPE":"U","NORAD_CAT_ID":49308,"ELEMENT_SET_NO":999,"REV_AT_EPOCH":22400,"BSTAR":-0.00013377000000000002,"MEAN_MOTION_DOT":-4.1e-07,"MEAN_MOTION_DDOT":0.0},{"OBJECT_NAME":"ONEWEB-0383","OBJECT_ID":"2021-090AG","EPOCH":"2026-05-04T00:51:01.793088","MEAN_MOTION":13.14502692,"ECCENTRICITY":0.000194,"INCLINATION":87.8938,"RA_OF_ASC_NODE":298.5064,"ARG_OF_PERICENTER":93.3404,"MEAN_ANOMALY":266.7948,"EPHEMERIS_TYPE":0,"CLASSIFICATION_TYPE":"U","NORAD_CAT_ID":49309,"ELEMENT_SET_NO":999,"REV_AT_EPOCH":22179,"BSTAR":-0.00032853,"MEAN_MOTION_DOT":-1.09e-06,"MEAN_MOTION_DDOT":0.0},{"OBJECT_NAME":"ONEWEB-0384","OBJECT_ID":"2021-090AH","EPOCH":"2026-05-03T21:26:37.980960","MEAN_MOTION":13.20810664,"ECCENTRICITY":0.0002301,"INCLINATION":87.9152,"RA_OF_ASC_NODE":283.3155,"ARG_OF_PERICENTER":101.0019,"MEAN_ANOMALY":259.1373,"EPHEMERIS_TYPE":0,"CLASSIFICATION_TYPE":"U","NORAD_CAT_ID":49310,"ELEMENT_SET_NO":999,"REV_AT_EPOCH":22398,"BSTAR":-0.00016374,"MEAN_MOTION_DOT":-5.4e-07,"MEAN_MOTION_DDOT":0.0},{"OBJECT_NAME":"ONEWEB-0385","OBJECT_ID":"2021-090AJ","EPOCH":"2026-05-03T21:30:00.690048","MEAN_MOTION":13.20770158,"ECCENTRICITY":0.0001977,"INCLINATION":87.915,"RA_OF_ASC_NODE":283.2763,"ARG_OF_PERICENTER":100.0317,"MEAN_ANOMALY":260.1039,"EPHEMERIS_TYPE":0,"CLASSIFICATION_TYPE":"U","NORAD_CAT_ID":49311,"ELEMENT_SET_NO":999,"REV_AT_EPOCH":22395,"BSTAR":-0.00012263,"MEAN_MOTION_DOT":-3.7e-07,"MEAN_MOTION_DDOT":0.0},{"OBJECT_NAME":"ONEWEB-0386","OBJECT_ID":"2021-090AK","EPOCH":"2026-05-04T03:22:16.537152","MEAN_MOTION":13.20770699,"ECCENTRICITY":0.0002062,"INCLINATION":87.9158,"RA_OF_ASC_NODE":283.2161,"ARG_OF_PERICENTER":98.1965,"MEAN_ANOMALY":261.9403,"EPHEMERIS_TYPE":0,"CLASSIFICATION_TYPE":"U","NORAD_CAT_ID":49312,"ELEMENT_SET_NO":999,"REV_AT_EPOCH":22400,"BSTAR":1.3763e-05,"MEAN_MOTION_DOT":1.9e-07,"MEAN_MOTION_DDOT":0.0}]