ONEWEB-0371             
1 49297U 21090U   26123.91286417  .00000019  00000+0  13987-4 0  9996
2 49297  87.9148 313.7949 0001717  86.0254 274.1075 13.19725361220612
ONEWEB-0372             
1 49298U 21090V   26124.14664376  .00000090  00000+0  19004-3 0  9991
2 49298  87.9149 283.2275 0001798  95.4029 264.7309 13.20773953224026
ONEWEB-0373             
1 49299U 21090W   26124.17362053  .00000010  00000+0 -72994-5 0  9994
2 49299  87.9147 283.2244 0001793  99.2550 260.8786 13.20770418225218
ONEWEB-0374             
1 49300U 21090X   26123.89428435 -.00000199  00000+0 -57086-3 0  9994
2 49300  87.8925 298.5350 0002210 105.6902 254.4472 13.14504516221741
ONEWEB-0375             
1 49301U 21090Y   26124.16098622  .00000093  00000+0  19629-3 0  9999
2 49301  87.9146 283.2171 0002121 109.9364 250.1998 13.20770622224716
ONEWEB-0376             
1 49302U 21090Z   26123.91128153 -.00000008  00000+0 -52781-4 0  9990
2 49302  87.9154 313.7928 0001838  82.7890 277.3452 13.19726315220610
ONEWEB-0377             
1 49303U 21090AA  26124.14692895  .00000081  00000+0  16673-3 0  9994
2 49303  87.9149 283.2216 0001643 101.9929 258.1388 13.20772072224709
ONEWEB-0378             
1 49304U 21090AB  26124.16901588  .00000045  00000+0  79538-4 0  9999
2 49304  87.9144 283.2250 0001933  98.8729 261.2624 13.20769996223974
ONEWEB-0379             
1 49305U 21090AC  26124.19400740 -.00000125  00000+0 -37059-3 0  9999
2 49305  87.8927 298.4862 0001875  94.8461 265.2883 13.14503582221782
ONEWEB-0380             
1 49306U 21090AD  26123.90812117 -.00000048  00000+0 -15164-3 0  9990
2 49306  87.9148 313.8027 0001725  97.1268 263.0061 13.19724803220586
ONEWEB-0381             
1 49307U 21090AE  26124.14361087  .00000005  00000+0 -19690-4 0  9994
2 49307  87.9149 283.2267 0001971 102.4460 257.6894 13.20770020224010
ONEWEB-0382             
1 49308U 21090AF  26124.13098595 -.00000041  00000+0 -13377-3 0  9991
2 49308  87.9149 283.2247 0002104 101.2575 258.8795 13.20769890224007
ONEWEB-0383             
1 49309U 21090AG  26124.03543742 -.00000109  00000+0 -32853-3 0  9995
2 49309  87.8938 298.5064 0001940  93.3404 266.7948 13.14502692221797
ONEWEB-0384             
1 49310U 21090AH  26123.89349515 -.00000054  00000+0 -16374-3 0  9991
2 49310  87.9152 283.3155 0002301 101.0019 259.1373 13.20810664223981
ONEWEB-0385             
1 49311U 21090AJ  26123.89584132 -.00000037  00000+0 -12263-3 0  9992
2 49311  87.9150 283.2763 0001977 100.0317 260.1039 13.20770158223953
ONEWEB-0386             
1 49312U 21090AK  26124.14046918  .00000019  00000+0  13763-4 0  9992
2 49312  87.9158 283.2161 0002062  98.1965 261.9403 13.20770699224007
